ONEWEB-0363             
1 49289U 21090L   25298.09129839  .00000062  00000+0  12066-3 0  9996
2 49289  87.9195 321.3247 0001515  87.6270 272.5036 13.20770574199276
ONEWEB-0364             
1 49290U 21090M   25298.12917249  .00000000  00000+0 -30805-4 0  9997
2 49290  87.9195 321.3425 0001708  93.2347 266.8981 13.20770105200412
ONEWEB-0365             
1 49291U 21090N   25298.15465277  .00000017  00000+0  10729-4 0  9990
2 49291  87.9256 351.7082 0001916 100.8497 259.2852 13.19725493195424
ONEWEB-0366             
1 49292U 21090P   25298.15581965  .00000016  00000+0  77387-5 0  9997
2 49292  87.9013 336.5430 0001820  94.3756 265.7582 13.14503539196684
ONEWEB-0367             
1 49293U 21090Q   25298.08974367  .00000068  00000+0  13602-3 0  9997
2 49293  87.9201 321.3218 0002042  96.1314 264.0052 13.20771265198795
ONEWEB-0368             
1 49294U 21090R   25298.13866733 -.00000046  00000+0 -14521-3 0  9990
2 49294  87.9193 321.3460 0001352 117.1251 243.0021 13.20771120199954
ONEWEB-0369             
1 49295U 21090S   25298.14991017  .00000021  00000+0  19666-4 0  9993
2 49295  87.9250 351.7399 0001897 100.8101 259.3245 13.19724872195419
ONEWEB-0370             
1 49296U 21090T   25298.09921419  .00000130  00000+0  28864-3 0  9997
2 49296  87.9196 321.3277 0002182  89.6530 270.4853 13.20771241198837
